{
"type": "FeatureCollection",
"crs": { "type": "name", "properties": { "name": "urn:ogc:def:crs:EPSG::31468" } },
"features": [
{ "type": "Feature", "properties": { "element_type": "way", "osmid": 38140446, "name": "Steinweg", "highway": "track", "nodes": [ 1678479319, 448886562, 1678515542, 7204134476, 448886564, 448886568, 1717641963 ], "bicycle": "yes", "smoothness": "intermediate", "surface": "compacted", "tracktype": "grade2", "maxspeed": null, "sidewalk": null, "lanes": null, "lit": null, "motor_vehicle": null, "ref": null, "source:maxspeed": null, "lanes:backward": null, "traffic_calming": null }, "geometry": { "type": "LineString", "coordinates": [ [ 4453703.484765130095184, 5750173.317879770882428 ], [ 4453662.898870503529906, 5750035.69203941617161 ], [ 4453630.657746965065598, 5749938.29245242010802 ], [ 4453598.396700525656343, 5749836.642614088021219 ], [ 4453585.457408932968974, 5749792.108523552305996 ], [ 4453574.499482388608158, 5749725.090029646642506 ], [ 4453585.583762871101499, 5749643.713329061865807 ] ] } },
{ "type": "Feature", "properties": { "element_type": "way", "osmid": 54234166, "name": "Heteborner Hakelstraße", "highway": "residential", "nodes": [ 683872135, 9232344565, 9232344566, 845189628, 9232344581, 10723628723, 9232344583, 9232344585, 9232344587, 9232344589, 845189629, 9232344591, 845189956, 845189957, 9232354820, 845189959, 845189963, 9232344539, 845189964, 845189967 ], "bicycle": null, "smoothness": null, "surface": "sett", "tracktype": null, "maxspeed": "30", "sidewalk": "right", "lanes": null, "lit": null, "motor_vehicle": null, "ref": null, "source:maxspeed": null, "lanes:backward": null, "traffic_calming": null }, "geometry": { "type": "LineString", "coordinates": [ [ 4452211.037037690170109, 5750954.223574531264603 ], [ 4452179.03057025372982, 5750966.713623322546482 ], [ 4452043.149241769686341, 5751010.07467407360673 ], [ 4451826.438170627690852, 5751077.483820028603077 ], [ 4451792.929756838828325, 5751089.690372550860047 ], [ 4451773.828696577809751, 5751096.595254632644355 ], [ 4451757.568224252201617, 5751102.482502900063992 ], [ 4451720.01938293594867, 5751116.186167917214334 ], [ 4451688.460152690298855, 5751127.706989205442369 ], [ 4451648.970117721706629, 5751142.119821925647557 ], [ 4451636.586602170951664, 5751146.634742841124535 ], [ 4451613.234013272449374, 5751155.261549662798643 ], [ 4451512.195912058465183, 5751192.592209020629525 ], [ 4451504.202245669439435, 5751203.919446170330048 ], [ 4451490.082118045538664, 5751211.077625301666558 ], [ 4451454.703184512443841, 5751229.012958383187652 ], [ 4451437.322185184806585, 5751242.801467476412654 ], [ 4451432.411700014024973, 5751256.112986283376813 ], [ 4451431.433519036509097, 5751265.99250128865242 ], [ 4451429.771488890983164, 5751273.508508307859302 ] ] } },
{ "type": "Feature", "properties": { "element_type": "way", "osmid": 54234499, "name": null, "highway": "track", "nodes": [ 683875044, 7195458733, 1688303374, 6391664742, 1688303437, 1688303556, 1688303501 ], "bicycle": null, "smoothness": null, "surface": "ground", "tracktype": "grade4", "maxspeed": null, "sidewalk": null, "lanes": null, "lit": null, "motor_vehicle": null, "ref": null, "source:maxspeed": null, "lanes:backward": null, "traffic_calming": null }, "geometry": { "type": "LineString", "coordinates": [ [ 4453248.027044313959777, 5750768.132638288661838 ], [ 4453311.351904276758432, 5750735.72873854264617 ], [ 4453324.290654616430402, 5750729.209896922111511 ], [ 4453503.316965419799089, 5750619.520189674571157 ], [ 4453519.680263088084757, 5750609.498336132615805 ], [ 4453649.046932341530919, 5750539.031632830388844 ], [ 4453821.02421966008842, 5750437.029846023768187 ] ] } },
{ "type": "Feature", "properties": { "element_type": "way", "osmid": 54234501, "name": "Kalkweg (Zur Domburg)", "highway": "track", "nodes": [ 845189628, 9232344564, 845212312, 9232344553, 845193937, 683875031, 4774981500, 1678515711, 1061793156, 1061793050, 1061792905, 1061793390, 1061793591, 1061793337, 1061792957, 1061793134, 1061792968, 1061792969, 1061793432, 1061793191, 1061793037, 1061792902, 1061793496, 1061793476, 1061793030, 1061793041, 8491726947, 1061793444, 1061793256, 8491726933, 8491726946, 1061792855, 8491726945, 8491726944, 8491726975, 8491726943, 1061793447, 7197002088, 1061793250, 2016664494, 2016664492, 448886613, 1061793015, 11745900466, 2016664490, 1061793174, 2016664479, 1061793358 ], "bicycle": null, "smoothness": "intermediate", "surface": "compacted", "tracktype": "grade2", "maxspeed": null, "sidewalk": null, "lanes": null, "lit": null, "motor_vehicle": null, "ref": null, "source:maxspeed": null, "lanes:backward": null, "traffic_calming": null }, "geometry": { "type": "LineString", "coordinates": [ [ 4451826.438170627690852, 5751077.483820028603077 ], [ 4451827.636204212903976, 5751073.911523605696857 ], [ 4451837.608376589603722, 5751044.138800606131554 ], [ 4451889.375091122463346, 5750905.69472582731396 ], [ 4451920.891689795069396, 5750821.413528341799974 ], [ 4451939.83729958999902, 5750767.330543068237603 ], [ 4451943.645695379003882, 5750760.239224373362958 ], [ 4452023.002749023959041, 5750612.541074833832681 ], [ 4452069.465019294992089, 5750526.059195097535849 ], [ 4452084.582291437312961, 5750484.65417768061161 ], [ 4452090.278074545785785, 5750461.755157557316124 ], [ 4452087.091925167478621, 5750438.20669883210212 ], [ 4452079.478432986885309, 5750413.966193398460746 ], [ 4452080.102306169457734, 5750402.165191996842623 ], [ 4452098.964299843646586, 5750134.493531743064523 ], [ 4452104.40006729401648, 5750085.069353480823338 ], [ 4452112.257249175570905, 5750056.252202103845775 ], [ 4452128.03564200270921, 5750006.729192621074617 ], [ 4452149.567294405773282, 5749940.193154910579324 ], [ 4452171.275694933719933, 5749892.828007805161178 ], [ 4452193.706963021308184, 5749843.230590747669339 ], [ 4452203.803610985167325, 5749817.340990223921835 ], [ 4452225.245779000222683, 5749741.225511103868484 ], [ 4452286.376662417314947, 5749487.862470523454249 ], [ 4452293.639434007927775, 5749474.518359391950071 ], [ 4452309.716230852529407, 5749455.949508043006063 ], [ 4452415.034003103151917, 5749355.870072968304157 ], [ 4452577.833299548365176, 5749215.256835484877229 ], [ 4452602.866101387888193, 5749201.099650466814637 ], [ 4452623.924026634544134, 5749190.485291100107133 ], [ 4452658.567753866314888, 5749173.689358281902969 ], [ 4452690.490447741933167, 5749155.361532066017389 ], [ 4452724.445481155067682, 5749137.793650850653648 ], [ 4452784.118457983247936, 5749111.404404580593109 ], [ 4452801.993043644353747, 5749100.576003072783351 ], [ 4452820.210170235484838, 5749089.544149032793939 ], [ 4452851.120845805853605, 5749067.488107745535672 ], [ 4452891.963560764677823, 5749045.405637644231319 ], [ 4452929.523638335987926, 5749027.248910496011376 ], [ 4452974.085435934364796, 5749005.065420395694673 ], [ 4453024.518884838558733, 5748991.272927213460207 ], [ 4453046.022078703157604, 5748991.238287850283086 ], [ 4453087.83363467361778, 5748985.672443677671254 ], [ 4453111.511969942599535, 5748978.863432209007442 ], [ 4453188.785846778191626, 5748947.919098680838943 ], [ 4453245.691162350587547, 5748925.600496722385287 ], [ 4453339.39034425560385, 5748892.023884220980108 ], [ 4453440.507445054128766, 5748865.690757610835135 ] ] } },
{ "type": "Feature", "properties": { "element_type": "way", "osmid": 70909017, "name": "Lindgrund", "highway": "residential", "nodes": [ 1058826922, 1058826927, 1058827079, 1058827264, 1058827070, 845183750, 845183752, 845183753, 845183755, 845183757, 845183759, 9236038096, 845183760, 9236038094, 9236038092, 845183761, 9236038090, 9236038060, 9236038088, 845183762, 9236038086, 9236038083, 845183763, 9236038081, 9236038079, 845183764, 9236038074, 845183765, 10893426996, 10893426995, 845198083 ], "bicycle": null, "smoothness": null, "surface": null, "tracktype": null, "maxspeed": null, "sidewalk": null, "lanes": null, "lit": null, "motor_vehicle": null, "ref": null, "source:maxspeed": null, "lanes:backward": null, "traffic_calming": null }, "geometry": { "type": "LineString", "coordinates": [ [ 4450124.769388457760215, 5751159.094552884809673 ], [ 4450130.419189452193677, 5751137.39535431843251 ], [ 4450152.572150770574808, 5751136.440369470044971 ], [ 4450180.152187328785658, 5751139.815707787871361 ], [ 4450214.318134667351842, 5751146.363806908018887 ], [ 4450252.245781177654862, 5751162.188453370705247 ], [ 4450290.804133127443492, 5751177.072415172122419 ], [ 4450330.763982510194182, 5751184.042269308120012 ], [ 4450375.748104098252952, 5751176.964299312792718 ], [ 4450463.426380021497607, 5751153.997027995064855 ], [ 4450599.879817107692361, 5751134.010522386059165 ], [ 4450624.230037050321698, 5751131.05526066198945 ], [ 4450639.750599297694862, 5751129.166362578049302 ], [ 4450675.213149714283645, 5751109.444030959159136 ], [ 4450690.188461233861744, 5751101.117868199944496 ], [ 4450704.123547486029565, 5751093.425128462724388 ], [ 4450716.857584959827363, 5751088.214542045257986 ], [ 4450735.628469346091151, 5751080.774741653352976 ], [ 4450740.042585416696966, 5751079.46278827264905 ], [ 4450763.891527362167835, 5751072.407114185392857 ], [ 4450766.504058387130499, 5751072.025349142961204 ], [ 4450797.482161251828074, 5751067.392295900732279 ], [ 4450802.349577755667269, 5751066.665698446333408 ], [ 4450809.266445417888463, 5751067.810638437047601 ], [ 4450836.299544922076166, 5751072.296574546024203 ], [ 4450840.085575705394149, 5751072.927051498554647 ], [ 4450885.358019255101681, 5751087.360197118483484 ], [ 4450905.200457663275301, 5751093.686298144049942 ], [ 4450998.220733117312193, 5751123.74282600171864 ], [ 4451004.843546030111611, 5751124.401304250583053 ], [ 4451008.810542215593159, 5751123.127345092594624 ] ] } },
{ "type": "Feature", "properties": { "element_type": "way", "osmid": 70909497, "name": "Parkstraße", "highway": "residential", "nodes": [ 845190636, 10893436013, 845190653, 845191838, 9232344529, 845190655, 845190659, 845190660, 6292139269, 845190668, 845190670, 845190672, 845190673, 845190675 ], "bicycle": null, "smoothness": "bad", "surface": "cobblestone", "tracktype": null, "maxspeed": "30", "sidewalk": "left", "lanes": "2", "lit": "yes", "motor_vehicle": null, "ref": null, "source:maxspeed": null, "lanes:backward": null, "traffic_calming": null }, "geometry": { "type": "LineString", "coordinates": [ [ 4451305.430152328684926, 5751451.453192002139986 ], [ 4451309.908750825561583, 5751446.880771664902568 ], [ 4451319.575071103870869, 5751437.028020560741425 ], [ 4451290.250789269804955, 5751367.321661016903818 ], [ 4451278.905101803131402, 5751339.023711995221674 ], [ 4451267.872811818495393, 5751310.400042168796062 ], [ 4451265.686150113120675, 5751300.061684818938375 ], [ 4451238.580142844468355, 5751246.91390289273113 ], [ 4451236.699351732619107, 5751243.249038689769804 ], [ 4451234.619769257493317, 5751219.879428477957845 ], [ 4451238.759474243037403, 5751203.114583616144955 ], [ 4451246.536620470695198, 5751187.994567974470556 ], [ 4451258.860908853821456, 5751169.658983963541687 ], [ 4451270.017884341068566, 5751153.048416154459119 ] ] } },
{ "type": "Feature", "properties": { "element_type": "way", "osmid": 70909517, "name": "Anger", "highway": "residential", "nodes": [ 845190675, 845190676, 845190677, 845190678, 845190679, 6704810374, 845190680, 845190682, 845190684 ], "bicycle": null, "smoothness": null, "surface": null, "tracktype": null, "maxspeed": "30", "sidewalk": null, "lanes": null, "lit": null, "motor_vehicle": null, "ref": null, "source:maxspeed": null, "lanes:backward": null, "traffic_calming": null }, "geometry": { "type": "LineString", "coordinates": [ [ 4451270.017884341068566, 5751153.048416154459119 ], [ 4451289.506895236670971, 5751138.693575960583985 ], [ 4451304.973714008927345, 5751134.092171083204448 ], [ 4451319.001629007048905, 5751133.032197578810155 ], [ 4451332.618767809122801, 5751132.209931761026382 ], [ 4451335.291786458343267, 5751132.38424673769623 ], [ 4451392.492289201356471, 5751136.045958413742483 ], [ 4451447.160203498788178, 5751136.98440396040678 ], [ 4451516.55891483463347, 5751133.374334638006985 ] ] } },
{ "type": "Feature", "properties": { "element_type": "way", "osmid": 70909551, "name": "Lindenstraße", "highway": "residential", "nodes": [ 845193413, 845193414, 845193415, 845198892, 845197359, 9232344563, 845190684, 6570484189, 845189956 ], "bicycle": null, "smoothness": null, "surface": null, "tracktype": null, "maxspeed": "30", "sidewalk": null, "lanes": null, "lit": null, "motor_vehicle": null, "ref": null, "source:maxspeed": null, "lanes:backward": null, "traffic_calming": null }, "geometry": { "type": "LineString", "coordinates": [ [ 4451558.650285882875323, 5750839.870802851393819 ], [ 4451547.713559417054057, 5750885.821557514369488 ], [ 4451538.106159406714141, 5750906.900829361751676 ], [ 4451531.527921636588871, 5750978.44702148810029 ], [ 4451522.663953338749707, 5751064.202820429578424 ], [ 4451517.092243960127234, 5751127.304726378060877 ], [ 4451516.55891483463347, 5751133.374334638006985 ], [ 4451513.182554690167308, 5751182.857288161292672 ], [ 4451512.195912058465183, 5751192.592209020629525 ] ] } },
{ "type": "Feature", "properties": { "element_type": "way", "osmid": 70909733, "name": "Dorfstraße", "highway": "residential", "nodes": [ 3874432861, 845197408, 845197410, 845197411, 845197412, 845197413, 845197420, 845197422, 9232386886, 845197425, 845197428, 9232344551, 9232344552, 845197431, 8565782248, 845197444, 845197359 ], "bicycle": null, "smoothness": null, "surface": "cobblestone", "tracktype": null, "maxspeed": "30", "sidewalk": "both", "lanes": null, "lit": "yes", "motor_vehicle": null, "ref": null, "source:maxspeed": null, "lanes:backward": null, "traffic_calming": null }, "geometry": { "type": "LineString", "coordinates": [ [ 4451048.945296266116202, 5751150.175099476240575 ], [ 4451108.205427134409547, 5751146.180013098753989 ], [ 4451134.062725272960961, 5751146.662021193653345 ], [ 4451153.305925382301211, 5751150.902986438013613 ], [ 4451171.082930434495211, 5751155.881605510599911 ], [ 4451187.111588413827121, 5751160.198556724004447 ], [ 4451204.833336375653744, 5751158.10078626871109 ], [ 4451226.429715498350561, 5751150.190199913457036 ], [ 4451239.226895143277943, 5751145.770378649234772 ], [ 4451261.664721549488604, 5751137.295380659401417 ], [ 4451271.851044507697225, 5751129.885523310862482 ], [ 4451274.507512548938394, 5751123.405764332972467 ], [ 4451287.609679464250803, 5751114.23168876580894 ], [ 4451299.94099797680974, 5751109.326950112357736 ], [ 4451428.1610036958009, 5751074.120680397376418 ], [ 4451474.732447748072445, 5751064.355507182888687 ], [ 4451522.663953338749707, 5751064.202820429578424 ] ] } },
{ "type": "Feature", "properties": { "element_type": "way", "osmid": 70909832, "name": null, "highway": "residential", "nodes": [ 845198103, 11273851393, 11273851395, 11273851394, 845198318, 11273851396, 10893426989, 10893426991, 10893426990, 845198312 ], "bicycle": null, "smoothness": "bad", "surface": null, "tracktype": null, "maxspeed": null, "sidewalk": null, "lanes": null, "lit": null, "motor_vehicle": null, "ref": null, "source:maxspeed": null, "lanes:backward": null, "traffic_calming": null }, "geometry": { "type": "LineString", "coordinates": [ [ 4451279.733816801570356, 5750985.486081646755338 ], [ 4451272.660726618021727, 5750944.227640522643924 ], [ 4451269.934119189158082, 5750938.556930355727673 ], [ 4451263.725332385860384, 5750935.891132664866745 ], [ 4451256.715588433668017, 5750935.113673814572394 ], [ 4451137.770077037625015, 5750956.49140177667141 ], [ 4450971.113210367038846, 5750982.222347382456064 ], [ 4450959.557376611977816, 5750984.761282715015113 ], [ 4450951.937237820588052, 5750987.740174534730613 ], [ 4450945.922809047624469, 5750990.870260149240494 ] ] } },
{ "type": "Feature", "properties": { "element_type": "way", "osmid": 70909836, "name": "Anger", "highway": "residential", "nodes": [ 845190675, 845197428 ], "bicycle": null, "smoothness": null, "surface": null, "tracktype": null, "maxspeed": "30", "sidewalk": null, "lanes": "1", "lit": null, "motor_vehicle": null, "ref": null, "source:maxspeed": null, "lanes:backward": null, "traffic_calming": null }, "geometry": { "type": "LineString", "coordinates": [ [ 4451270.017884341068566, 5751153.048416154459119 ], [ 4451271.851044507697225, 5751129.885523310862482 ] ] } },
{ "type": "Feature", "properties": { "element_type": "way", "osmid": 70909838, "name": "Anger", "highway": "residential", "nodes": [ 845197431, 845190677 ], "bicycle": null, "smoothness": null, "surface": null, "tracktype": null, "maxspeed": "30", "sidewalk": null, "lanes": null, "lit": null, "motor_vehicle": null, "ref": null, "source:maxspeed": null, "lanes:backward": null, "traffic_calming": null }, "geometry": { "type": "LineString", "coordinates": [ [ 4451299.94099797680974, 5751109.326950112357736 ], [ 4451304.973714008927345, 5751134.092171083204448 ] ] } },
{ "type": "Feature", "properties": { "element_type": "way", "osmid": 70909839, "name": "Friedensstraße", "highway": "residential", "nodes": [ 845197428, 845200993, 845198451, 11273851400, 11273851399, 845198106, 11273851401, 11273851402, 845198103, 845198101, 845198793, 845198097 ], "bicycle": null, "smoothness": null, "surface": null, "tracktype": null, "maxspeed": "30", "sidewalk": null, "lanes": null, "lit": null, "motor_vehicle": null, "ref": null, "source:maxspeed": null, "lanes:backward": null, "traffic_calming": null }, "geometry": { "type": "LineString", "coordinates": [ [ 4451271.851044507697225, 5751129.885523310862482 ], [ 4451242.363044581376016, 5751066.234353450126946 ], [ 4451239.861440296284854, 5751058.213580661453307 ], [ 4451231.003362921997905, 5751030.937494602054358 ], [ 4451228.956429662182927, 5751020.119314423762262 ], [ 4451229.19607643596828, 5751009.379011590965092 ], [ 4451233.735787093639374, 5751003.270351139828563 ], [ 4451244.780827117152512, 5750997.053843696601689 ], [ 4451279.733816801570356, 5750985.486081646755338 ], [ 4451341.08975069783628, 5750968.098228358663619 ], [ 4451375.667949879541993, 5750959.016199343837798 ], [ 4451399.782730377279222, 5750955.087798678316176 ] ] } },
{ "type": "Feature", "properties": { "element_type": "way", "osmid": 70909840, "name": "Friedensstraße", "highway": "residential", "nodes": [ 845198798, 845193415, 845198799, 845198800, 845198802, 845198803, 845198805, 845198793 ], "bicycle": null, "smoothness": null, "surface": null, "tracktype": null, "maxspeed": null, "sidewalk": null, "lanes": null, "lit": null, "motor_vehicle": null, "ref": null, "source:maxspeed": null, "lanes:backward": null, "traffic_calming": null }, "geometry": { "type": "LineString", "coordinates": [ [ 4451563.153868874534965, 5750910.408433279022574 ], [ 4451538.106159406714141, 5750906.900829361751676 ], [ 4451502.165388949215412, 5750910.431214199401438 ], [ 4451453.642147781327367, 5750917.878270030021667 ], [ 4451422.934678710065782, 5750924.296133405528963 ], [ 4451403.09004981815815, 5750934.058257155120373 ], [ 4451386.957417410798371, 5750946.744318755343556 ], [ 4451375.667949879541993, 5750959.016199343837798 ] ] } },
{ "type": "Feature", "properties": { "element_type": "way", "osmid": 70909842, "name": "An der Bleiche", "highway": "residential", "nodes": [ 845198892, 845198900, 845198901, 8565782247, 845198903, 6570484324, 845200550 ], "bicycle": null, "smoothness": null, "surface": null, "tracktype": null, "maxspeed": "30", "sidewalk": null, "lanes": null, "lit": null, "motor_vehicle": null, "ref": null, "source:maxspeed": null, "lanes:backward": null, "traffic_calming": null }, "geometry": { "type": "LineString", "coordinates": [ [ 4451531.527921636588871, 5750978.44702148810029 ], [ 4451517.220624953508377, 5750972.743627324700356 ], [ 4451495.07388917170465, 5750974.426916027441621 ], [ 4451408.702100232243538, 5751007.211106535047293 ], [ 4451404.922412732616067, 5751008.649839650839567 ], [ 4451374.868615720421076, 5751017.799010810442269 ], [ 4451365.518803750164807, 5751020.638283221982419 ] ] } },
{ "type": "Feature", "properties": { "element_type": "way", "osmid": 70909919, "name": null, "highway": "residential", "nodes": [ 845201001, 845200993 ], "bicycle": null, "smoothness": null, "surface": null, "tracktype": null, "maxspeed": "30", "sidewalk": null, "lanes": null, "lit": null, "motor_vehicle": null, "ref": null, "source:maxspeed": null, "lanes:backward": null, "traffic_calming": null }, "geometry": { "type": "LineString", "coordinates": [ [ 4451214.778615603223443, 5751082.148184148594737 ], [ 4451242.363044581376016, 5751066.234353450126946 ] ] } },
{ "type": "Feature", "properties": { "element_type": "way", "osmid": 89369683, "name": null, "highway": "track", "nodes": [ 683872135, 1036584855, 1036584868, 1036584910, 1036584714, 11645806065, 1036584902, 1036584706, 1036584758, 1036584689, 1036584740, 1036584702, 1036584818, 1036584708, 1036584785, 1036584793, 1879242774, 10893436035, 10893436036, 1036584699 ], "bicycle": null, "smoothness": null, "surface": null, "tracktype": "grade3", "maxspeed": null, "sidewalk": null, "lanes": null, "lit": null, "motor_vehicle": null, "ref": null, "source:maxspeed": null, "lanes:backward": null, "traffic_calming": null }, "geometry": { "type": "LineString", "coordinates": [ [ 4452211.037037690170109, 5750954.223574531264603 ], [ 4452233.122065338306129, 5750951.097481036558747 ], [ 4452242.98071419633925, 5750951.737857654690742 ], [ 4452258.145815779455006, 5750961.563395062461495 ], [ 4452268.629991555586457, 5750972.212511036545038 ], [ 4452278.286458999849856, 5750987.765589009039104 ], [ 4452360.151785447262228, 5751181.236945000477135 ], [ 4452369.270970962010324, 5751208.412302861921489 ], [ 4452374.65110204089433, 5751230.460129392333329 ], [ 4452382.43704098276794, 5751272.380861287005246 ], [ 4452386.434980181977153, 5751304.022532059811056 ], [ 4452400.444693740457296, 5751339.463605483062565 ], [ 4452502.650280739180744, 5751552.584038194268942 ], [ 4451878.379391622729599, 5751932.137353550642729 ], [ 4451857.051016380079091, 5751941.177597036585212 ], [ 4451838.612048764713109, 5751944.303726279176772 ], [ 4451675.1103959614411, 5751958.631430682726204 ], [ 4451628.462436061352491, 5751960.361613053828478 ], [ 4451608.076082547195256, 5751960.692170861177146 ], [ 4451597.353774948045611, 5751962.375927787274122 ] ] } },
{ "type": "Feature", "properties": { "element_type": "way", "osmid": 89370535, "name": null, "highway": "track", "nodes": [ 1036593570, 1036593949, 1036593739 ], "bicycle": null, "smoothness": "intermediate", "surface": "compacted", "tracktype": "grade2", "maxspeed": null, "sidewalk": null, "lanes": null, "lit": null, "motor_vehicle": null, "ref": null, "source:maxspeed": null, "lanes:backward": null, "traffic_calming": null }, "geometry": { "type": "LineString", "coordinates": [ [ 4451601.141370114870369, 5750374.122851068153977 ], [ 4451022.472119864076376, 5749820.661950964480639 ], [ 4450537.35532630328089, 5749234.829014980234206 ] ] } },
{ "type": "Feature", "properties": { "element_type": "way", "osmid": 91403181, "name": "Zur Domburg", "highway": "track", "nodes": [ 1036593570, 1061793368, 1061793565, 1061793591 ], "bicycle": null, "smoothness": null, "surface": null, "tracktype": null, "maxspeed": null, "sidewalk": null, "lanes": null, "lit": null, "motor_vehicle": null, "ref": null, "source:maxspeed": null, "lanes:backward": null, "traffic_calming": null }, "geometry": { "type": "LineString", "coordinates": [ [ 4451601.141370114870369, 5750374.122851068153977 ], [ 4451613.631050882861018, 5750366.858382744714618 ], [ 4451675.723594323731959, 5750370.676489124074578 ], [ 4452079.478432986885309, 5750413.966193398460746 ] ] } },
{ "type": "Feature", "properties": { "element_type": "way", "osmid": 114197475, "name": "Cochstedter Weg", "highway": "track", "nodes": [ 1275489096, 3635073689, 3635073690, 1678515844, 1678515823, 1293864622, 1293864628, 6783489983, 1293864606, 1293864611, 1293864612, 1717630103, 7613114741, 1293864613, 8763510639, 8294691727, 1293864615, 7613114742, 9341897069, 1293864616, 7204105614, 1293864618, 1293864598, 9341897080, 1293864600, 9128879184, 9128879182, 1293864620, 1293864627, 1293864629, 1293864586, 1678479319 ], "bicycle": null, "smoothness": "intermediate", "surface": "compacted", "tracktype": "grade2", "maxspeed": null, "sidewalk": null, "lanes": null, "lit": null, "motor_vehicle": "forestry", "ref": null, "source:maxspeed": null, "lanes:backward": null, "traffic_calming": null }, "geometry": { "type": "LineString", "coordinates": [ [ 4456011.910516896285117, 5749969.42398892249912 ], [ 4456003.961569709703326, 5749971.530092977918684 ], [ 4455989.192010164260864, 5749973.273301515728235 ], [ 4455921.638836839236319, 5749974.212284456938505 ], [ 4455843.727139423601329, 5749982.787767710164189 ], [ 4455785.538004136644304, 5749985.125967619009316 ], [ 4455685.686265612021089, 5749978.831323050893843 ], [ 4455569.362937633879483, 5749980.38481760956347 ], [ 4455526.361442611552775, 5749961.382752304896712 ], [ 4455471.814422810450196, 5749937.320625046268106 ], [ 4455331.563871962018311, 5749895.295444925315678 ], [ 4455161.622325751930475, 5749856.243777838535607 ], [ 4455137.260795881971717, 5749849.640890033915639 ], [ 4455043.417586172930896, 5749824.210758430883288 ], [ 4454982.984159487299621, 5749817.62092890497297 ], [ 4454799.842391673475504, 5749797.660994012840092 ], [ 4454639.874625029042363, 5749780.224009183235466 ], [ 4454604.206292862072587, 5749779.935126397758722 ], [ 4454497.085649907588959, 5749782.264584532007575 ], [ 4454465.358439666219056, 5749782.953474247828126 ], [ 4454447.293312212452292, 5749785.81052921526134 ], [ 4454407.767498974688351, 5749797.519972772337496 ], [ 4454362.935090801678598, 5749820.11606746725738 ], [ 4454305.467660496011376, 5749857.204291954636574 ], [ 4454262.104111169464886, 5749885.195776538923383 ], [ 4454213.696199503727257, 5749917.272964497096837 ], [ 4454156.109903863631189, 5749947.153527182526886 ], [ 4454101.461351331323385, 5749966.89311393070966 ], [ 4454022.648446714505553, 5749977.563742697238922 ], [ 4453974.416932635009289, 5749990.358018564991653 ], [ 4453783.187094615772367, 5750112.416342222131789 ], [ 4453703.484765130095184, 5750173.317879770882428 ] ] } },
{ "type": "Feature", "properties": { "element_type": "way", "osmid": 155455193, "name": "Steinweg", "highway": "track", "nodes": [ 448918641, 448918643, 448918645, 7195511772, 448918646, 1688303533, 7195458712, 6391664725, 448918651, 448918653, 6391664722, 448918655, 448918656, 448918657, 1688303314, 448886552, 6391664746, 1678479304, 1688303501, 1678479308, 1678479309, 1678479301, 1678479319 ], "bicycle": "yes", "smoothness": "intermediate", "surface": "paved", "tracktype": "grade2", "maxspeed": null, "sidewalk": null, "lanes": null, "lit": null, "motor_vehicle": null, "ref": null, "source:maxspeed": null, "lanes:backward": null, "traffic_calming": null }, "geometry": { "type": "LineString", "coordinates": [ [ 4454690.278343360871077, 5752042.428614719770849 ], [ 4454646.279269188642502, 5751969.520227349363267 ], [ 4454592.915936347097158, 5751859.298191137611866 ], [ 4454572.131114537827671, 5751821.064097058959305 ], [ 4454520.745430854149163, 5751726.558907091617584 ], [ 4454423.341917188838124, 5751534.196376676671207 ], [ 4454344.377710764296353, 5751362.564631756395102 ], [ 4454301.736260917037725, 5751269.873540215194225 ], [ 4454283.354504455812275, 5751229.916196437552571 ], [ 4454210.321145677939057, 5751139.439609521068633 ], [ 4454118.115135320462286, 5751009.615425100550056 ], [ 4454099.642320821993053, 5750983.268296002410352 ], [ 4454018.534780457615852, 5750846.523115860298276 ], [ 4453935.048123781569302, 5750744.284698631614447 ], [ 4453924.999333431012928, 5750722.990412165410817 ], [ 4453856.917219104245305, 5750578.772780833765864 ], [ 4453854.397827125154436, 5750569.883001744747162 ], [ 4453838.513713617809117, 5750513.947634661570191 ], [ 4453821.02421966008842, 5750437.029846023768187 ], [ 4453817.010161687619984, 5750424.370575129985809 ], [ 4453798.317418583668768, 5750373.09020443726331 ], [ 4453737.070738136768341, 5750248.139278030954301 ], [ 4453703.484765130095184, 5750173.317879770882428 ] ] } },
{ "type": "Feature", "properties": { "element_type": "way", "osmid": 156599499, "name": null, "highway": "track", "nodes": [ 448918657, 1688303456, 1688303530 ], "bicycle": null, "smoothness": null, "surface": null, "tracktype": null, "maxspeed": null, "sidewalk": null, "lanes": null, "lit": null, "motor_vehicle": null, "ref": null, "source:maxspeed": null, "lanes:backward": null, "traffic_calming": null }, "geometry": { "type": "LineString", "coordinates": [ [ 4453935.048123781569302, 5750744.284698631614447 ], [ 4453939.384994334541261, 5750741.195917326025665 ], [ 4453970.211196161806583, 5750719.547998447902501 ] ] } },
{ "type": "Feature", "properties": { "element_type": "way", "osmid": 156599503, "name": null, "highway": "track", "nodes": [ 1688303314, 1688303530, 1688303466, 1688303342, 1688303323, 1688303465, 1688303438, 1688303519, 1688303532, 1688303535, 1688303339, 1688303507, 1688303553, 1688303497, 1688303373, 1688303528, 1688303552, 1688303340, 1688303549, 9128879195, 1688303505, 1688303317, 1688303321, 1688303461, 1688303524, 1688303493, 1688303377, 1688303319, 1688303343, 1688303459, 1688303463, 1688303536, 1688303499, 1688303523, 1688303376, 1688303411, 1688303417, 1688303436, 1688303472, 1688303348 ], "bicycle": null, "smoothness": "horrible", "surface": "grass", "tracktype": "grade5", "maxspeed": null, "sidewalk": null, "lanes": null, "lit": null, "motor_vehicle": null, "ref": null, "source:maxspeed": null, "lanes:backward": null, "traffic_calming": null }, "geometry": { "type": "LineString", "coordinates": [ [ 4453924.999333431012928, 5750722.990412165410817 ], [ 4453970.211196161806583, 5750719.547998447902501 ], [ 4453992.379961137659848, 5750720.078681901097298 ], [ 4454049.336060799658298, 5750728.401958143338561 ], [ 4454097.397303620353341, 5750733.847535721957684 ], [ 4454129.93395939655602, 5750737.243669372983277 ], [ 4454158.036705208942294, 5750740.669473717920482 ], [ 4454183.131913284771144, 5750738.225469148717821 ], [ 4454203.029748069122434, 5750732.880378842353821 ], [ 4454220.048152870498598, 5750736.419040022417903 ], [ 4454245.203997967764735, 5750740.606676668860018 ], [ 4454264.425784475170076, 5750741.899891621433198 ], [ 4454287.364785643294454, 5750746.119113400578499 ], [ 4454308.100170300342143, 5750751.816224827431142 ], [ 4454326.659023609943688, 5750761.961945864371955 ], [ 4454343.717509831301868, 5750769.918204553425312 ], [ 4454352.806589711457491, 5750794.148537531495094 ], [ 4454358.178365568630397, 5750816.198430420830846 ], [ 4454368.760774163529277, 5750842.629517489112914 ], [ 4454377.887357100844383, 5750856.644673302769661 ], [ 4454379.249106345698237, 5750858.746457648463547 ], [ 4454380.207239084877074, 5750883.050923366099596 ], [ 4454387.072454209439456, 5750906.567174999043345 ], [ 4454397.600825792178512, 5750927.101333890110254 ], [ 4454413.192052841186523, 5750935.80558696296066 ], [ 4454427.323121046647429, 5750946.726386217400432 ], [ 4454443.691158004105091, 5750959.095678367651999 ], [ 4454460.788962019607425, 5750971.469513325020671 ], [ 4454477.116677192039788, 5750979.421733746305108 ], [ 4454491.247583974152803, 5750990.353838860988617 ], [ 4454500.998493977822363, 5751006.466602036729455 ], [ 4454504.849146538414061, 5751024.112923211418092 ], [ 4454515.316771742887795, 5751037.28158927988261 ], [ 4454530.304390704259276, 5751061.458656002767384 ], [ 4454535.080017154105008, 5751068.770448328927159 ], [ 4454538.312991767190397, 5751079.067245387472212 ], [ 4454541.14755161292851, 5751085.673391830176115 ], [ 4454540.88954711239785, 5751098.205095282755792 ], [ 4454542.448027309961617, 5751107.582403304055333 ], [ 4454544.132981966249645, 5751120.274504804052413 ] ] } },
{ "type": "Feature", "properties": { "element_type": "way", "osmid": 358602419, "name": null, "highway": "track", "nodes": [ 845183762, 3635073701, 3635073700, 3635073699, 3635073698, 3635073697, 3635073696, 3635073695, 3635073694, 3635073693, 1293937251 ], "bicycle": null, "smoothness": null, "surface": null, "tracktype": null, "maxspeed": null, "sidewalk": null, "lanes": null, "lit": null, "motor_vehicle": null, "ref": null, "source:maxspeed": null, "lanes:backward": null, "traffic_calming": null }, "geometry": { "type": "LineString", "coordinates": [ [ 4450763.891527362167835, 5751072.407114185392857 ], [ 4450748.900413964875042, 5751004.944173194468021 ], [ 4450745.420531519688666, 5750990.646249944344163 ], [ 4450745.108979968354106, 5750982.771083082072437 ], [ 4450748.529553621076047, 5750974.937101013958454 ], [ 4450753.242269054055214, 5750970.373010383918881 ], [ 4450766.907260162755847, 5750963.873746691271663 ], [ 4450835.06380763836205, 5750928.898230288177729 ], [ 4450874.215073102153838, 5750905.969813481904566 ], [ 4450891.516394016332924, 5750893.214986653998494 ], [ 4450898.467631155624986, 5750890.8211904540658 ] ] } },
{ "type": "Feature", "properties": { "element_type": "way", "osmid": 484748274, "name": null, "highway": "track", "nodes": [ 4774981487, 11645805271, 11645805272, 11645805273, 11645805274, 11645805275, 11645805276, 683875028, 11645805277, 7195458732, 11645805278, 7195458725, 683875027, 7195458726, 11645805279, 11645805280, 7195458729, 7195458731, 7195458724, 7195458727, 11645805281, 7195458735, 11645805282 ], "bicycle": null, "smoothness": null, "surface": "ground", "tracktype": null, "maxspeed": null, "sidewalk": null, "lanes": null, "lit": null, "motor_vehicle": null, "ref": null, "source:maxspeed": null, "lanes:backward": null, "traffic_calming": null }, "geometry": { "type": "LineString", "coordinates": [ [ 4452875.54174389783293, 5751366.081646682694554 ], [ 4452835.224896980449557, 5751273.124816332943738 ], [ 4452811.357112810015678, 5751212.616470441222191 ], [ 4452790.467999467626214, 5751145.336959389969707 ], [ 4452782.579982168972492, 5751107.578252769075334 ], [ 4452782.786733759567142, 5751090.807345854118466 ], [ 4452781.234934194013476, 5751084.679667036980391 ], [ 4452773.632115068845451, 5751068.416377951391041 ], [ 4452758.036444032564759, 5751018.646079236641526 ], [ 4452754.875275109894574, 5750985.705487916246057 ], [ 4452753.650056260637939, 5750963.117347473278642 ], [ 4452757.699684280902147, 5750928.217073565348983 ], [ 4452754.511670083738863, 5750912.869118829257786 ], [ 4452743.690972009673715, 5750897.103584936819971 ], [ 4452728.309117764234543, 5750881.737204733304679 ], [ 4452715.604738517664373, 5750866.289951191283762 ], [ 4452709.007111772894859, 5750852.264995883218944 ], [ 4452689.303566502407193, 5750808.008370984345675 ], [ 4452667.238327123224735, 5750751.400501837953925 ], [ 4452659.765103485435247, 5750735.826052932068706 ], [ 4452650.398735282942653, 5750726.845792798325419 ], [ 4452638.015424034558237, 5750721.388077341020107 ], [ 4452579.020476185716689, 5750721.278724543750286 ] ] } },
{ "type": "Feature", "properties": { "element_type": "way", "osmid": 484748275, "name": null, "highway": "track", "nodes": [ 4774981487, 11645805270, 11645805269, 11645713968, 11645713967, 683875046, 8306521676, 683875047, 448918657 ], "bicycle": null, "smoothness": null, "surface": null, "tracktype": null, "maxspeed": null, "sidewalk": null, "lanes": null, "lit": null, "motor_vehicle": null, "ref": null, "source:maxspeed": null, "lanes:backward": null, "traffic_calming": null }, "geometry": { "type": "LineString", "coordinates": [ [ 4452875.54174389783293, 5751366.081646682694554 ], [ 4452935.309778016991913, 5751331.336163692176342 ], [ 4453081.360497487708926, 5751244.162260182201862 ], [ 4453197.895521568134427, 5751176.997316341847181 ], [ 4453383.305869998410344, 5751069.524407762102783 ], [ 4453462.892379999160767, 5751026.277610827237368 ], [ 4453482.467114743776619, 5751013.032212865538895 ], [ 4453523.430103492923081, 5750985.323065056465566 ], [ 4453935.048123781569302, 5750744.284698631614447 ] ] } },
{ "type": "Feature", "properties": { "element_type": "way", "osmid": 484748277, "name": "Zur Domburg", "highway": "track", "nodes": [ 4877335034, 4774981496, 4877335033, 4774981495, 11645805283, 4774981494, 4774981493, 4774981492, 1678515677 ], "bicycle": null, "smoothness": null, "surface": "ground", "tracktype": "grade5", "maxspeed": null, "sidewalk": null, "lanes": null, "lit": null, "motor_vehicle": null, "ref": null, "source:maxspeed": null, "lanes:backward": null, "traffic_calming": null }, "geometry": { "type": "LineString", "coordinates": [ [ 4452020.52413855586201, 5750763.485689752735198 ], [ 4452038.559538522735238, 5750761.610437626950443 ], [ 4452049.701116595417261, 5750759.567578411661088 ], [ 4452057.018013288266957, 5750746.389452812261879 ], [ 4452069.721943358890712, 5750732.047037844546139 ], [ 4452077.350309965200722, 5750718.30959318112582 ], [ 4452084.546739776618779, 5750681.731754396110773 ], [ 4452104.905929535627365, 5750641.300353053957224 ], [ 4452121.664948127232492, 5750621.822953804396093 ] ] } },
{ "type": "Feature", "properties": { "element_type": "way", "osmid": 484748278, "name": "Zur Domburg", "highway": "track", "nodes": [ 1678515677, 1678515672, 1678515663, 1678515631, 11645805284, 1678515623, 1678515590, 1678515587, 1678515519, 1678515354, 1678515743, 1678515740, 1678515737, 683875022, 683875021, 4774981490, 4774981489, 683875020, 683875019, 683875018, 1678515815, 1678515428, 4877419462, 1678515522, 1678515545, 1678515478, 1678515495, 1678515597, 1678515621, 1678515628, 1678515633, 1678515657, 1678515667, 4877339644, 1678515671, 1678515675, 1678515693, 683875012, 1678515634 ], "bicycle": null, "smoothness": null, "surface": null, "tracktype": "grade4", "maxspeed": null, "sidewalk": null, "lanes": null, "lit": null, "motor_vehicle": null, "ref": null, "source:maxspeed": null, "lanes:backward": null, "traffic_calming": null }, "geometry": { "type": "LineString", "coordinates": [ [ 4452121.664948127232492, 5750621.822953804396093 ], [ 4452130.34377274941653, 5750603.413177833892405 ], [ 4452139.970533863641322, 5750563.863446263596416 ], [ 4452174.265387875027955, 5750521.073718085885048 ], [ 4452191.447467400692403, 5750504.007169060409069 ], [ 4452201.2818598523736, 5750489.748138054274023 ], [ 4452216.590508169494569, 5750445.181535606272519 ], [ 4452236.208113779313862, 5750401.864668895490468 ], [ 4452256.101574217900634, 5750357.833105007186532 ], [ 4452263.180443732999265, 5750325.340440709143877 ], [ 4452268.059928365983069, 5750294.715894159860909 ], [ 4452283.748019095510244, 5750274.670656870119274 ], [ 4452290.339514909312129, 5750267.608743990771472 ], [ 4452303.64108694344759, 5750248.576642150990665 ], [ 4452411.089811870828271, 5750147.007639151997864 ], [ 4452461.644684578292072, 5750125.608115858398378 ], [ 4452484.051972229965031, 5750112.498880341649055 ], [ 4452514.670300152152777, 5750099.656846677884459 ], [ 4452754.635249852202833, 5749969.022461787797511 ], [ 4452796.873254036530852, 5749942.374819833785295 ], [ 4452817.677778276614845, 5749898.570707398466766 ], [ 4452840.180024495348334, 5749856.575592249631882 ], [ 4452856.217131613753736, 5749821.273329014889896 ], [ 4452860.438951898366213, 5749811.06319844443351 ], [ 4452883.57083748281002, 5749756.121261451393366 ], [ 4452899.986877284012735, 5749694.399262676015496 ], [ 4452915.919595820829272, 5749660.344457894563675 ], [ 4452931.651704892516136, 5749604.18155650049448 ], [ 4452940.32058665715158, 5749583.470016583800316 ], [ 4452960.785613795742393, 5749559.687845128588378 ], [ 4452970.935268548317254, 5749538.96245903801173 ], [ 4452986.944992285221815, 5749512.273480808362365 ], [ 4452986.765194896608591, 5749493.113884250633419 ], [ 4452990.152514626272023, 5749479.050519754178822 ], [ 4452992.452543629333377, 5749469.481678743846714 ], [ 4453007.134176040068269, 5749459.028897532261908 ], [ 4453043.852233655750751, 5749435.09465582575649 ], [ 4453064.926149843260646, 5749412.230793587863445 ], [ 4453068.005646048113704, 5749406.449110878631473 ] ] } },
{ "type": "Feature", "properties": { "element_type": "way", "osmid": 496015563, "name": null, "highway": "track", "nodes": [ 4877335035, 4877335033 ], "bicycle": null, "smoothness": null, "surface": "ground", "tracktype": "grade5", "maxspeed": null, "sidewalk": null, "lanes": null, "lit": null, "motor_vehicle": null, "ref": null, "source:maxspeed": null, "lanes:backward": null, "traffic_calming": null }, "geometry": { "type": "LineString", "coordinates": [ [ 4452045.580323054455221, 5750793.011480748653412 ], [ 4452049.701116595417261, 5750759.567578411661088 ] ] } },
{ "type": "Feature", "properties": { "element_type": "way", "osmid": 496015564, "name": null, "highway": "track", "nodes": [ 4877335040, 4877335039, 4877335038, 4877335037, 4877335036, 4877335035, 4877335034 ], "bicycle": null, "smoothness": null, "surface": "ground", "tracktype": "grade5", "maxspeed": null, "sidewalk": null, "lanes": null, "lit": null, "motor_vehicle": null, "ref": null, "source:maxspeed": null, "lanes:backward": null, "traffic_calming": null }, "geometry": { "type": "LineString", "coordinates": [ [ 4452243.628625871613622, 5750929.432383796200156 ], [ 4452192.142639255151153, 5750901.393020301125944 ], [ 4452137.282414424233139, 5750881.286877629347146 ], [ 4452102.330985844135284, 5750856.57329073920846 ], [ 4452062.025604022666812, 5750813.484223025850952 ], [ 4452045.580323054455221, 5750793.011480748653412 ], [ 4452020.52413855586201, 5750763.485689752735198 ] ] } },
{ "type": "Feature", "properties": { "element_type": "way", "osmid": 496022234, "name": null, "highway": "track", "nodes": [ 4877396702, 4877419464, 7195458730, 4877411761, 8971664010, 11645805285, 4877411760, 8306492946, 1678515590 ], "bicycle": null, "smoothness": null, "surface": "ground", "tracktype": "grade4", "maxspeed": null, "sidewalk": null, "lanes": null, "lit": null, "motor_vehicle": null, "ref": null, "source:maxspeed": null, "lanes:backward": null, "traffic_calming": null }, "geometry": { "type": "LineString", "coordinates": [ [ 4453237.75190625153482, 5749995.734599486924708 ], [ 4452987.281841743737459, 5750110.97727174218744 ], [ 4452897.734666877426207, 5750149.89637047983706 ], [ 4452687.902867121621966, 5750246.456604084931314 ], [ 4452553.72272290289402, 5750307.62451015971601 ], [ 4452486.332970168441534, 5750338.429657144472003 ], [ 4452429.428370938636363, 5750363.861748611554503 ], [ 4452380.823067884892225, 5750387.257162564434111 ], [ 4452216.590508169494569, 5750445.181535606272519 ] ] } },
{ "type": "Feature", "properties": { "element_type": "way", "osmid": 496023975, "name": null, "highway": "track", "nodes": [ 6391664754, 8565736530, 4877419465, 4877419464, 4877419463, 4877419462 ], "bicycle": null, "smoothness": "very_bad", "surface": "paved", "tracktype": "grade3", "maxspeed": null, "sidewalk": null, "lanes": null, "lit": null, "motor_vehicle": null, "ref": null, "source:maxspeed": null, "lanes:backward": null, "traffic_calming": null }, "geometry": { "type": "LineString", "coordinates": [ [ 4453155.115224713459611, 5750469.096411352977157 ], [ 4453074.032518249005079, 5750293.075192475691438 ], [ 4453031.453120880760252, 5750205.312282557599247 ], [ 4452987.281841743737459, 5750110.97727174218744 ], [ 4452928.767265480943024, 5749978.076473074033856 ], [ 4452856.217131613753736, 5749821.273329014889896 ] ] } },
{ "type": "Feature", "properties": { "element_type": "way", "osmid": 682506148, "name": null, "highway": "track", "nodes": [ 6391664742, 6391664743, 6391664747, 6391664744, 6391664745, 6391664746 ], "bicycle": null, "smoothness": "very_horrible", "surface": "ground", "tracktype": "grade5", "maxspeed": null, "sidewalk": null, "lanes": null, "lit": null, "motor_vehicle": null, "ref": null, "source:maxspeed": null, "lanes:backward": null, "traffic_calming": null }, "geometry": { "type": "LineString", "coordinates": [ [ 4453503.316965419799089, 5750619.520189674571157 ], [ 4453532.757521237246692, 5750610.422949933446944 ], [ 4453578.603667168878019, 5750615.149728005751967 ], [ 4453619.436209292151034, 5750636.881422186270356 ], [ 4453665.220665181055665, 5750634.977664486505091 ], [ 4453854.397827125154436, 5750569.883001744747162 ] ] } },
{ "type": "Feature", "properties": { "element_type": "way", "osmid": 682506150, "name": null, "highway": "track", "nodes": [ 4877396702, 6391664749, 6391664750, 6391664751, 6391664752 ], "bicycle": null, "smoothness": null, "surface": "dirt", "tracktype": "grade5", "maxspeed": null, "sidewalk": null, "lanes": null, "lit": null, "motor_vehicle": null, "ref": null, "source:maxspeed": null, "lanes:backward": null, "traffic_calming": null }, "geometry": { "type": "LineString", "coordinates": [ [ 4453237.75190625153482, 5749995.734599486924708 ], [ 4453280.322987228631973, 5750158.119247395545244 ], [ 4453294.196060226298869, 5750219.145746880210936 ], [ 4453324.37328264862299, 5750286.663341633975506 ], [ 4453334.278175365179777, 5750398.567777652293444 ] ] } },
{ "type": "Feature", "properties": { "element_type": "way", "osmid": 682506152, "name": null, "highway": "track", "nodes": [ 7195458733, 6391664754 ], "bicycle": null, "smoothness": null, "surface": "dirt", "tracktype": "grade5", "maxspeed": null, "sidewalk": null, "lanes": null, "lit": null, "motor_vehicle": null, "ref": null, "source:maxspeed": null, "lanes:backward": null, "traffic_calming": null }, "geometry": { "type": "LineString", "coordinates": [ [ 4453311.351904276758432, 5750735.72873854264617 ], [ 4453155.115224713459611, 5750469.096411352977157 ] ] } },
{ "type": "Feature", "properties": { "element_type": "way", "osmid": 699637049, "name": "An der Bleiche", "highway": "residential", "nodes": [ 845198903, 845198097 ], "bicycle": null, "smoothness": null, "surface": null, "tracktype": null, "maxspeed": "30", "sidewalk": null, "lanes": null, "lit": null, "motor_vehicle": null, "ref": null, "source:maxspeed": null, "lanes:backward": null, "traffic_calming": null }, "geometry": { "type": "LineString", "coordinates": [ [ 4451404.922412732616067, 5751008.649839650839567 ], [ 4451399.782730377279222, 5750955.087798678316176 ] ] } },
{ "type": "Feature", "properties": { "element_type": "way", "osmid": 699686764, "name": "Ernst-Thälmann-Straße", "highway": "residential", "nodes": [ 3874432861, 8399356579, 6570484241 ], "bicycle": null, "smoothness": null, "surface": null, "tracktype": null, "maxspeed": null, "sidewalk": null, "lanes": null, "lit": null, "motor_vehicle": null, "ref": null, "source:maxspeed": null, "lanes:backward": null, "traffic_calming": null }, "geometry": { "type": "LineString", "coordinates": [ [ 4451048.945296266116202, 5751150.175099476240575 ], [ 4451043.78504762519151, 5751139.253894180059433 ], [ 4451034.388810398057103, 5751120.40686908364296 ] ] } },
{ "type": "Feature", "properties": { "element_type": "way", "osmid": 699686765, "name": "Friedensstraße", "highway": "residential", "nodes": [ 6570484241, 6570484246, 6570484245, 6570484244, 6570484243, 6570484242, 11273851404, 11273851403, 845198106 ], "bicycle": null, "smoothness": null, "surface": null, "tracktype": null, "maxspeed": null, "sidewalk": null, "lanes": null, "lit": null, "motor_vehicle": null, "ref": null, "source:maxspeed": null, "lanes:backward": null, "traffic_calming": null }, "geometry": { "type": "LineString", "coordinates": [ [ 4451034.388810398057103, 5751120.40686908364296 ], [ 4451051.2251037042588, 5751103.78478323854506 ], [ 4451119.177607390098274, 5751065.543651791289449 ], [ 4451143.552401518449187, 5751046.700709249824286 ], [ 4451160.210528684780002, 5751030.102994031272829 ], [ 4451186.302809543907642, 5751017.1966901011765 ], [ 4451216.852073631249368, 5751005.226316946558654 ], [ 4451224.01030879188329, 5751006.4139872090891 ], [ 4451229.19607643596828, 5751009.379011590965092 ] ] } },
{ "type": "Feature", "properties": { "element_type": "way", "osmid": 699686768, "name": null, "highway": "secondary", "nodes": [ 35700416, 1036593536, 2952346181, 1293989639, 35700418, 1293989685, 1036593824, 1293989553, 1293989555, 2952346209, 1293989547, 1293989545, 35700421, 35700423, 619266986, 1293989720, 35700425, 619266976, 1293989657, 1293989622, 35700430, 1293924553, 1293924594, 1293924333, 35700432, 35700434, 1293924434, 1293924359, 1293924343, 35700437, 1036593550, 35700439, 1293924366, 1293924323, 1036593940, 1055524701, 1293937231, 35700444, 1293937260, 1293937256, 35700536, 1293937126, 1293937198, 10893426984, 1293937251, 10893426985 ], "bicycle": null, "smoothness": null, "surface": null, "tracktype": null, "maxspeed": "100", "sidewalk": null, "lanes": "2", "lit": null, "motor_vehicle": null, "ref": "L 66", "source:maxspeed": "DE:rural", "lanes:backward": null, "traffic_calming": null }, "geometry": { "type": "LineString", "coordinates": [ [ 4448963.551201173104346, 5747668.831874893046916 ], [ 4449002.33857243321836, 5747714.727347849868238 ], [ 4449064.224925107322633, 5747791.712129451334476 ], [ 4449075.246035723015666, 5747807.779470692388713 ], [ 4449082.713464692234993, 5747820.589204269461334 ], [ 4449088.845132175832987, 5747836.194376691244543 ], [ 4449094.140175703912973, 5747851.507611023262143 ], [ 4449128.893827698193491, 5748009.331507726572454 ], [ 4449133.476224290207028, 5748034.555446764454246 ], [ 4449133.933549137786031, 5748048.39335560798645 ], [ 4449132.416490654461086, 5748059.792133548296988 ], [ 4449128.676283177919686, 5748072.749062411487103 ], [ 4449120.443728566169739, 5748089.712965223006904 ], [ 4449011.14589929394424, 5748298.094751970842481 ], [ 4448932.735082345083356, 5748445.953604857437313 ], [ 4448919.96668094675988, 5748474.647925666533411 ], [ 4448917.444383174180984, 5748488.059975581243634 ], [ 4448918.868526068516076, 5748504.781171241775155 ], [ 4448926.334320375695825, 5748519.515744158998132 ], [ 4448943.231365852057934, 5748542.455330793745816 ], [ 4449022.266097367741168, 5748643.656277060508728 ], [ 4449044.850058417767286, 5748669.787572558969259 ], [ 4449061.708683099597692, 5748684.983221143484116 ], [ 4449084.935927788726985, 5748698.534118695184588 ], [ 4449112.008215024136007, 5748711.556468805298209 ], [ 4449394.838853115215898, 5748825.363887717016041 ], [ 4449435.358304469846189, 5748842.113413015380502 ], [ 4449460.984632539562881, 5748856.042408098466694 ], [ 4449478.044999199919403, 5748870.258178762160242 ], [ 4449505.544625300914049, 5748903.329985824413598 ], [ 4449617.902851583436131, 5749048.71421879529953 ], [ 4449863.364876720122993, 5749367.65737724211067 ], [ 4449883.915808657184243, 5749394.424709116108716 ], [ 4449912.446827989071608, 5749428.567729935981333 ], [ 4450112.940833752043545, 5749647.079934485256672 ], [ 4450129.792289358563721, 5749666.362933280877769 ], [ 4450153.348404767923057, 5749693.64666966162622 ], [ 4450495.914750198833644, 5750091.538601822219789 ], [ 4450513.233732236549258, 5750113.833770275115967 ], [ 4450529.837198484688997, 5750141.788801867514849 ], [ 4450771.177653207443655, 5750615.921196803450584 ], [ 4450817.512035618536174, 5750707.901586764492095 ], [ 4450844.740334019064903, 5750768.556983798742294 ], [ 4450871.161280209198594, 5750829.799071068875492 ], [ 4450898.467631155624986, 5750890.8211904540658 ], [ 4450910.668292888440192, 5750916.817675048485398 ] ] } },
{ "type": "Feature", "properties": { "element_type": "way", "osmid": 750912785, "name": null, "highway": "track", "nodes": [ 1688303501, 7020507684, 7020519885, 7020519887, 1494567946, 7020519886, 7020507658, 7020507657, 7020507656, 7020507667, 9341897075, 9128879177, 7020507668, 7020507669, 7020507673, 9341897074, 7020507671, 7020507674, 7020507672, 9341897068, 7020507670, 7020507663, 7020507659, 8294691727, 7020507661, 7020507664, 7020507662, 7613114750, 7020507665, 7020507666, 7020507679, 7204105623, 7020507676, 7020507680, 7020507675, 7613114751, 9128879181, 7020507682, 7020507677, 7020507678, 7020507681, 7020507683, 448886572 ], "bicycle": null, "smoothness": null, "surface": "dirt", "tracktype": "grade5", "maxspeed": null, "sidewalk": null, "lanes": null, "lit": null, "motor_vehicle": null, "ref": null, "source:maxspeed": null, "lanes:backward": null, "traffic_calming": null }, "geometry": { "type": "LineString", "coordinates": [ [ 4453821.02421966008842, 5750437.029846023768187 ], [ 4453891.800791355781257, 5750388.218662867322564 ], [ 4453957.360242842696607, 5750338.766567803919315 ], [ 4453976.173420901410282, 5750269.938063668087125 ], [ 4454027.433431090787053, 5750228.785801151767373 ], [ 4454071.95115284435451, 5750215.236012792214751 ], [ 4454132.14066594094038, 5750212.848432104103267 ], [ 4454179.1926059871912, 5750206.798459954559803 ], [ 4454219.479990690946579, 5750190.6737748850137 ], [ 4454274.763166110962629, 5750172.031248307786882 ], [ 4454316.955085194669664, 5750156.279424898326397 ], [ 4454330.975643128156662, 5750151.04412920307368 ], [ 4454388.818152306601405, 5750133.570159981027246 ], [ 4454458.291971219703555, 5750108.546925120055676 ], [ 4454524.283289366401732, 5750082.143114106729627 ], [ 4454536.628401774913073, 5750073.596549266949296 ], [ 4454546.379950379021466, 5750066.842792022041976 ], [ 4454587.468257463537157, 5750035.51394160091877 ], [ 4454634.431912496685982, 5749999.714682577177882 ], [ 4454664.843137724325061, 5749971.710115271620452 ], [ 4454727.770155137404799, 5749913.768635977990925 ], [ 4454767.294940977357328, 5749859.266159596852958 ], [ 4454793.360201784409583, 5749821.865706640295684 ], [ 4454799.842391673475504, 5749797.660994012840092 ], [ 4454778.696561432443559, 5749775.85319996625185 ], [ 4454744.234659994021058, 5749723.109516805969179 ], [ 4454688.972269780933857, 5749658.748113865032792 ], [ 4454664.38991529121995, 5749637.817550183273852 ], [ 4454620.471447775140405, 5749600.415802829898894 ], [ 4454553.710102186538279, 5749571.544824743643403 ], [ 4454500.218668213114142, 5749539.594322899356484 ], [ 4454435.074995876289904, 5749547.152104135602713 ], [ 4454417.552549500949681, 5749549.192024405114353 ], [ 4454300.841941424645483, 5749553.204074890352786 ], [ 4454206.527679186314344, 5749582.072752079926431 ], [ 4454153.153290006332099, 5749606.796215740032494 ], [ 4454131.08316348399967, 5749619.828033625148237 ], [ 4454101.005643148906529, 5749637.573398791253567 ], [ 4454019.666898232884705, 5749670.744304373860359 ], [ 4453945.825653943233192, 5749675.851290185935795 ], [ 4453840.914615405723453, 5749676.816887500695884 ], [ 4453747.786277735605836, 5749673.247202839702368 ], [ 4453586.994906191714108, 5749635.466034251265228 ] ] } },
{ "type": "Feature", "properties": { "element_type": "way", "osmid": 770874441, "name": null, "highway": "track", "nodes": [ 7195458730, 7195488138, 1293864574 ], "bicycle": null, "smoothness": null, "surface": null, "tracktype": "grade5", "maxspeed": null, "sidewalk": null, "lanes": null, "lit": null, "motor_vehicle": null, "ref": null, "source:maxspeed": null, "lanes:backward": null, "traffic_calming": null }, "geometry": { "type": "LineString", "coordinates": [ [ 4452897.734666877426207, 5750149.89637047983706 ], [ 4452801.91512667760253, 5750569.454294943250716 ], [ 4452790.589562209323049, 5750600.261451433412731 ] ] } },
{ "type": "Feature", "properties": { "element_type": "way", "osmid": 770874442, "name": null, "highway": "track", "nodes": [ 683875044, 6391664741, 6391664740, 6391664739, 6391664738, 6391664737, 7195458725 ], "bicycle": null, "smoothness": "very_horrible", "surface": "ground", "tracktype": "grade5", "maxspeed": null, "sidewalk": null, "lanes": null, "lit": null, "motor_vehicle": null, "ref": null, "source:maxspeed": null, "lanes:backward": null, "traffic_calming": null }, "geometry": { "type": "LineString", "coordinates": [ [ 4453248.027044313959777, 5750768.132638288661838 ], [ 4453114.042901986278594, 5750812.648473680019379 ], [ 4453050.422142876312137, 5750852.913596097379923 ], [ 4452900.155204046517611, 5750898.533729743212461 ], [ 4452823.532127374783158, 5750919.885158732533455 ], [ 4452770.647935314103961, 5750926.481464306823909 ], [ 4452757.699684280902147, 5750928.217073565348983 ] ] } },
{ "type": "Feature", "properties": { "element_type": "way", "osmid": 771701876, "name": null, "highway": "track", "nodes": [ 4877396702, 7204134475, 7204134476 ], "bicycle": null, "smoothness": null, "surface": null, "tracktype": "grade4", "maxspeed": null, "sidewalk": null, "lanes": null, "lit": null, "motor_vehicle": null, "ref": null, "source:maxspeed": null, "lanes:backward": null, "traffic_calming": null }, "geometry": { "type": "LineString", "coordinates": [ [ 4453237.75190625153482, 5749995.734599486924708 ], [ 4453495.488452048040926, 5749878.667917314916849 ], [ 4453598.396700525656343, 5749836.642614088021219 ] ] } },
{ "type": "Feature", "properties": { "element_type": "way", "osmid": 893728224, "name": null, "highway": "track", "nodes": [ 4877335033, 8306492918, 8306492919, 8306492920, 8306492921, 8306492922, 8306492923, 8306492924, 8306492925, 8306492926, 8306492927, 8306492928, 8306492929, 8306492930, 8306492931, 8306492932, 8306492933, 8306492934, 8306492935, 8306492936, 8306492937, 8306492938, 8306492939 ], "bicycle": null, "smoothness": "very_bad", "surface": "ground", "tracktype": "grade4", "maxspeed": null, "sidewalk": null, "lanes": null, "lit": null, "motor_vehicle": null, "ref": null, "source:maxspeed": null, "lanes:backward": null, "traffic_calming": null }, "geometry": { "type": "LineString", "coordinates": [ [ 4452049.701116595417261, 5750759.567578411661088 ], [ 4452069.771777973510325, 5750768.188340592198074 ], [ 4452091.296541716903448, 5750770.474910706281662 ], [ 4452103.816475340165198, 5750769.286922426894307 ], [ 4452113.66455702483654, 5750766.622315375134349 ], [ 4452125.244045487605035, 5750759.96869601123035 ], [ 4452135.352352805435658, 5750747.787723299115896 ], [ 4452147.242933424189687, 5750730.448886060155928 ], [ 4452157.692689904011786, 5750720.122972441837192 ], [ 4452170.396491780877113, 5750710.777018401771784 ], [ 4452194.366439484059811, 5750698.708602619357407 ], [ 4452205.751614230684936, 5750687.539308683946729 ], [ 4452216.326141198165715, 5750672.227260189130902 ], [ 4452233.571002455428243, 5750651.677374263294041 ], [ 4452253.731698025017977, 5750630.732546762563288 ], [ 4452278.935326180420816, 5750602.106361715123057 ], [ 4452301.861795044504106, 5750571.48793978523463 ], [ 4452321.788588779978454, 5750542.545037092640996 ], [ 4452339.278308435343206, 5750513.625410037115216 ], [ 4452355.592450363561511, 5750487.777061346918344 ], [ 4452373.077179356478155, 5750466.980595366097987 ], [ 4452395.663826853968203, 5750446.847849352285266 ], [ 4452421.908990255557001, 5750427.648534312844276 ] ] } },
{ "type": "Feature", "properties": { "element_type": "way", "osmid": 893728225, "name": null, "highway": "track", "nodes": [ 683875026, 8306492940, 8306492941, 8306492942, 8306492943, 8306492944, 8306492945, 8306492939, 8306492946 ], "bicycle": null, "smoothness": "bad", "surface": "ground", "tracktype": "grade3", "maxspeed": null, "sidewalk": null, "lanes": null, "lit": null, "motor_vehicle": null, "ref": null, "source:maxspeed": null, "lanes:backward": null, "traffic_calming": null }, "geometry": { "type": "LineString", "coordinates": [ [ 4452618.457991553470492, 5750697.059470190666616 ], [ 4452596.306762362830341, 5750665.689604911021888 ], [ 4452571.873763523064554, 5750635.520945409312844 ], [ 4452547.600659471936524, 5750606.997738591395319 ], [ 4452503.330371215939522, 5750541.320779831148684 ], [ 4452476.672187977470458, 5750506.077336991205812 ], [ 4452452.635169349610806, 5750470.631108880974352 ], [ 4452421.908990255557001, 5750427.648534312844276 ], [ 4452380.823067884892225, 5750387.257162564434111 ] ] } },
{ "type": "Feature", "properties": { "element_type": "way", "osmid": 893728531, "name": null, "highway": "track", "nodes": [ 7195458733, 8306521673, 8306521674, 8306521675, 8306521676 ], "bicycle": null, "smoothness": "horrible", "surface": "ground", "tracktype": "grade4", "maxspeed": null, "sidewalk": null, "lanes": null, "lit": null, "motor_vehicle": null, "ref": null, "source:maxspeed": null, "lanes:backward": null, "traffic_calming": null }, "geometry": { "type": "LineString", "coordinates": [ [ 4453311.351904276758432, 5750735.72873854264617 ], [ 4453358.357821608893573, 5750808.887020462192595 ], [ 4453398.877305563539267, 5750878.42293684836477 ], [ 4453438.737636335194111, 5750946.051395820453763 ], [ 4453482.467114743776619, 5751013.032212865538895 ] ] } },
{ "type": "Feature", "properties": { "element_type": "way", "osmid": 903156472, "name": "Ernst-Thälmann-Straße", "highway": "secondary", "nodes": [ 1293937281, 35700447, 10893426992, 10893426993, 845198083, 6570484240 ], "bicycle": null, "smoothness": null, "surface": null, "tracktype": null, "maxspeed": "50", "sidewalk": "right", "lanes": "2", "lit": null, "motor_vehicle": null, "ref": "L 66", "source:maxspeed": "DE:urban", "lanes:backward": null, "traffic_calming": null }, "geometry": { "type": "LineString", "coordinates": [ [ 4450961.59255450963974, 5751022.441112243570387 ], [ 4450968.037818265147507, 5751038.000922407023609 ], [ 4450977.584643807262182, 5751058.827036888338625 ], [ 4450987.60409705620259, 5751080.115895382128656 ], [ 4451008.810542215593159, 5751123.127345092594624 ], [ 4451011.373899230733514, 5751128.27652545645833 ] ] } },
{ "type": "Feature", "properties": { "element_type": "way", "osmid": 903156473, "name": "Dorfstraße", "highway": "residential", "nodes": [ 845197362, 10893426983, 3874432861 ], "bicycle": null, "smoothness": null, "surface": "cobblestone", "tracktype": null, "maxspeed": "30", "sidewalk": "both", "lanes": null, "lit": "yes", "motor_vehicle": null, "ref": null, "source:maxspeed": null, "lanes:backward": null, "traffic_calming": null }, "geometry": { "type": "LineString", "coordinates": [ [ 4451027.950089380145073, 5751160.395082447677851 ], [ 4451032.897393959574401, 5751157.987683348357677 ], [ 4451048.945296266116202, 5751150.175099476240575 ] ] } },
{ "type": "Feature", "properties": { "element_type": "way", "osmid": 903156474, "name": "Friedensstraße", "highway": "residential", "nodes": [ 6570484240, 10893426994, 6570484241 ], "bicycle": null, "smoothness": null, "surface": null, "tracktype": null, "maxspeed": null, "sidewalk": null, "lanes": null, "lit": null, "motor_vehicle": null, "ref": null, "source:maxspeed": null, "lanes:backward": null, "traffic_calming": null }, "geometry": { "type": "LineString", "coordinates": [ [ 4451011.373899230733514, 5751128.27652545645833 ], [ 4451017.922421270981431, 5751125.564133911393583 ], [ 4451034.388810398057103, 5751120.40686908364296 ] ] } },
{ "type": "Feature", "properties": { "element_type": "way", "osmid": 922732272, "name": null, "highway": "track", "nodes": [ 845193413, 1036593546, 1036593700, 1036593793, 1061793546, 1036593570 ], "bicycle": null, "smoothness": "bad", "surface": "gravel", "tracktype": "grade3", "maxspeed": null, "sidewalk": null, "lanes": null, "lit": null, "motor_vehicle": null, "ref": null, "source:maxspeed": null, "lanes:backward": null, "traffic_calming": null }, "geometry": { "type": "LineString", "coordinates": [ [ 4451558.650285882875323, 5750839.870802851393819 ], [ 4451571.068246025592089, 5750774.766603666357696 ], [ 4451571.843398144468665, 5750702.553330283612013 ], [ 4451574.141562588512897, 5750634.742920545861125 ], [ 4451588.130473723635077, 5750457.114387081936002 ], [ 4451601.141370114870369, 5750374.122851068153977 ] ] } },
{ "type": "Feature", "properties": { "element_type": "way", "osmid": 969488317, "name": null, "highway": "track", "nodes": [ 8971670427, 8971670426, 8971670425, 8971670424, 8971670422, 8971670421, 8971670420, 8971670419, 8971670418, 8971664016, 8971664015, 8971664014, 8971664013, 8971664011, 8971664010 ], "bicycle": null, "smoothness": null, "surface": "ground", "tracktype": "grade5", "maxspeed": null, "sidewalk": null, "lanes": null, "lit": null, "motor_vehicle": null, "ref": null, "source:maxspeed": null, "lanes:backward": null, "traffic_calming": null }, "geometry": { "type": "LineString", "coordinates": [ [ 4452777.466855108737946, 5750605.492634178139269 ], [ 4452775.185621620155871, 5750597.235382805578411 ], [ 4452769.612167784944177, 5750585.960280685685575 ], [ 4452764.864401161670685, 5750575.356166349723935 ], [ 4452758.957777433097363, 5750557.964165396988392 ], [ 4452749.820223829708993, 5750543.328858077526093 ], [ 4452731.731975507922471, 5750523.659447588026524 ], [ 4452712.732471800409257, 5750508.861365017481148 ], [ 4452687.150099697522819, 5750486.77034552115947 ], [ 4452664.351927523501217, 5750464.953577423468232 ], [ 4452634.033365323208272, 5750428.475389813072979 ], [ 4452609.677866023033857, 5750396.403029804117978 ], [ 4452592.166103536263108, 5750364.277128114365041 ], [ 4452571.537142481654882, 5750337.488559172488749 ], [ 4452553.72272290289402, 5750307.62451015971601 ] ] } },
{ "type": "Feature", "properties": { "element_type": "way", "osmid": 969488318, "name": null, "highway": "track", "nodes": [ 6391664741, 8971670435, 8971670434, 8971670433, 8971670432, 8971670431, 8971670430, 8971670429, 8971670428, 8971670427 ], "bicycle": null, "smoothness": null, "surface": "ground", "tracktype": "grade5", "maxspeed": null, "sidewalk": null, "lanes": null, "lit": null, "motor_vehicle": null, "ref": null, "source:maxspeed": null, "lanes:backward": null, "traffic_calming": null }, "geometry": { "type": "LineString", "coordinates": [ [ 4453114.042901986278594, 5750812.648473680019379 ], [ 4453055.043611946515739, 5750789.91164855659008 ], [ 4453011.107456345111132, 5750789.044073301367462 ], [ 4452987.504303269088268, 5750779.462394842877984 ], [ 4452948.969405761919916, 5750748.901356627233326 ], [ 4452897.72155480273068, 5750712.262223263271153 ], [ 4452848.526352815330029, 5750674.324630382470787 ], [ 4452804.54743432905525, 5750642.002180721610785 ], [ 4452781.957347578369081, 5750616.5665352800861 ], [ 4452777.466855108737946, 5750605.492634178139269 ] ] } },
{ "type": "Feature", "properties": { "element_type": "way", "osmid": 1000189950, "name": null, "highway": "track", "nodes": [ 845193414, 9232344553 ], "bicycle": null, "smoothness": "bad", "surface": "pebblestone", "tracktype": "grade3", "maxspeed": null, "sidewalk": null, "lanes": null, "lit": null, "motor_vehicle": null, "ref": null, "source:maxspeed": null, "lanes:backward": null, "traffic_calming": null }, "geometry": { "type": "LineString", "coordinates": [ [ 4451547.713559417054057, 5750885.821557514369488 ], [ 4451889.375091122463346, 5750905.69472582731396 ] ] } },
{ "type": "Feature", "properties": { "element_type": "way", "osmid": 1000189951, "name": "Heteborner Hakelstraße", "highway": "residential", "nodes": [ 845189629, 9232344559, 9232344560, 9232344561, 9232344562, 9232344563 ], "bicycle": null, "smoothness": null, "surface": null, "tracktype": null, "maxspeed": null, "sidewalk": null, "lanes": null, "lit": null, "motor_vehicle": null, "ref": null, "source:maxspeed": null, "lanes:backward": null, "traffic_calming": null }, "geometry": { "type": "LineString", "coordinates": [ [ 4451636.586602170951664, 5751146.634742841124535 ], [ 4451633.025729254819453, 5751137.221959873102605 ], [ 4451626.540420753881335, 5751132.255014552734792 ], [ 4451619.411180101335049, 5751132.613204499706626 ], [ 4451609.912583423778415, 5751135.008363671600819 ], [ 4451517.092243960127234, 5751127.304726378060877 ] ] } },
{ "type": "Feature", "properties": { "element_type": "way", "osmid": 1000595281, "name": null, "highway": "track", "nodes": [ 9236072442, 9236038075, 9236038076, 9236038077 ], "bicycle": null, "smoothness": null, "surface": null, "tracktype": "grade3", "maxspeed": null, "sidewalk": null, "lanes": null, "lit": null, "motor_vehicle": null, "ref": null, "source:maxspeed": null, "lanes:backward": null, "traffic_calming": null }, "geometry": { "type": "LineString", "coordinates": [ [ 4450881.577510005794466, 5751101.328836401924491 ], [ 4450874.129659597761929, 5751128.864427234977484 ], [ 4450863.337495405226946, 5751143.235699158161879 ], [ 4450853.768305331468582, 5751151.029800117015839 ] ] } },
{ "type": "Feature", "properties": { "element_type": "way", "osmid": 1030956150, "name": null, "highway": "track", "nodes": [ 6391664741, 9502995100, 683875043, 9502995101, 9502995102, 9502995103, 9502995104, 9502995105, 9502995106, 9502995107, 9502995108, 9502995109, 9502995110, 9502995111, 9502995112, 9502995113, 683875046 ], "bicycle": null, "smoothness": "very_bad", "surface": "grass", "tracktype": "grade5", "maxspeed": null, "sidewalk": null, "lanes": null, "lit": null, "motor_vehicle": null, "ref": null, "source:maxspeed": null, "lanes:backward": null, "traffic_calming": null }, "geometry": { "type": "LineString", "coordinates": [ [ 4453114.042901986278594, 5750812.648473680019379 ], [ 4453151.877002389170229, 5750821.452200848609209 ], [ 4453164.046511208638549, 5750821.071309954859316 ], [ 4453181.814588690176606, 5750820.048352803103626 ], [ 4453193.629346839152277, 5750826.647704275324941 ], [ 4453210.701631578616798, 5750855.797621129080653 ], [ 4453224.931055060587823, 5750881.357756977900863 ], [ 4453235.124730295501649, 5750893.547152985818684 ], [ 4453249.703813404776156, 5750926.348002031445503 ], [ 4453264.432154478505254, 5750944.915607820264995 ], [ 4453294.032122873701155, 5750967.183459362946451 ], [ 4453307.805746322497725, 5750973.475492000579834 ], [ 4453343.658231951296329, 5750975.93427568115294 ], [ 4453373.600214988924563, 5750975.099013551138341 ], [ 4453401.979307495057583, 5750986.841257182881236 ], [ 4453416.402962542138994, 5751002.340985657647252 ], [ 4453462.892379999160767, 5751026.277610827237368 ] ] } },
{ "type": "Feature", "properties": { "element_type": "way", "osmid": 1030956154, "name": null, "highway": "track", "nodes": [ 1688303314, 9503003117, 9503003118, 6391664745 ], "bicycle": null, "smoothness": "horrible", "surface": "grass", "tracktype": "grade5", "maxspeed": null, "sidewalk": null, "lanes": null, "lit": null, "motor_vehicle": null, "ref": null, "source:maxspeed": null, "lanes:backward": null, "traffic_calming": null }, "geometry": { "type": "LineString", "coordinates": [ [ 4453924.999333431012928, 5750722.990412165410817 ], [ 4453865.707781745120883, 5750705.587899905629456 ], [ 4453768.506953638978302, 5750698.105423441156745 ], [ 4453665.220665181055665, 5750634.977664486505091 ] ] } },
{ "type": "Feature", "properties": { "element_type": "way", "osmid": 1030956155, "name": "Cochstedter Weg", "highway": "track", "nodes": [ 1678479319, 1293864588, 1293864590, 6391664752, 1293864562, 1293864567, 6391664754, 4877419466, 1293864568, 1293864569, 1293864574, 8971670427, 1293864575, 1293864577, 683875026, 11645805282, 4877335040, 11645806064, 683872135 ], "bicycle": null, "smoothness": "intermediate", "surface": "compacted", "tracktype": "grade2", "maxspeed": null, "sidewalk": null, "lanes": null, "lit": null, "motor_vehicle": null, "ref": null, "source:maxspeed": null, "lanes:backward": null, "traffic_calming": null }, "geometry": { "type": "LineString", "coordinates": [ [ 4453703.484765130095184, 5750173.317879770882428 ], [ 4453666.719412710517645, 5750199.317475077696145 ], [ 4453526.074294408783317, 5750300.532879722304642 ], [ 4453334.278175365179777, 5750398.567777652293444 ], [ 4453296.407785382121801, 5750417.926292627118528 ], [ 4453202.666510934941471, 5750457.157308428548276 ], [ 4453155.115224713459611, 5750469.096411352977157 ], [ 4453120.628766105510294, 5750477.619961726479232 ], [ 4453062.975452140904963, 5750494.583934084512293 ], [ 4452889.223095471970737, 5750562.011456023901701 ], [ 4452790.589562209323049, 5750600.261451433412731 ], [ 4452777.466855108737946, 5750605.492634178139269 ], [ 4452751.974643902853131, 5750616.960588629357517 ], [ 4452718.365165160037577, 5750636.517011711373925 ], [ 4452618.457991553470492, 5750697.059470190666616 ], [ 4452579.020476185716689, 5750721.278724543750286 ], [ 4452243.628625871613622, 5750929.432383796200156 ], [ 4452236.328323652967811, 5750934.987815037369728 ], [ 4452211.037037690170109, 5750954.223574531264603 ] ] } },
{ "type": "Feature", "properties": { "element_type": "way", "osmid": 1071624224, "name": "Ernst-Thälmann-Straße", "highway": "secondary", "nodes": [ 6570484240, 9232386908, 845197362 ], "bicycle": null, "smoothness": null, "surface": null, "tracktype": null, "maxspeed": "50", "sidewalk": "right", "lanes": "2", "lit": null, "motor_vehicle": null, "ref": "L 66", "source:maxspeed": "DE:urban", "lanes:backward": "1", "traffic_calming": null }, "geometry": { "type": "LineString", "coordinates": [ [ 4451011.373899230733514, 5751128.27652545645833 ], [ 4451023.818591315299273, 5751152.590646106749773 ], [ 4451027.950089380145073, 5751160.395082447677851 ] ] } },
{ "type": "Feature", "properties": { "element_type": "way", "osmid": 1172439633, "name": null, "highway": "secondary", "nodes": [ 10893426985, 8485269599 ], "bicycle": null, "smoothness": null, "surface": null, "tracktype": null, "maxspeed": "50", "sidewalk": null, "lanes": "2", "lit": null, "motor_vehicle": null, "ref": "L 66", "source:maxspeed": "DE:urban", "lanes:backward": null, "traffic_calming": null }, "geometry": { "type": "LineString", "coordinates": [ [ 4450910.668292888440192, 5750916.817675048485398 ], [ 4450917.896929485723376, 5750932.191704718396068 ] ] } },
{ "type": "Feature", "properties": { "element_type": "way", "osmid": 1172439634, "name": "Ernst-Thälmann-Straße", "highway": "secondary", "nodes": [ 10893426988, 10893426987, 10893426986, 1293937281 ], "bicycle": null, "smoothness": null, "surface": null, "tracktype": null, "maxspeed": "50", "sidewalk": "right", "lanes": "2", "lit": null, "motor_vehicle": null, "ref": "L 66", "source:maxspeed": "DE:urban", "lanes:backward": null, "traffic_calming": "island" }, "geometry": { "type": "LineString", "coordinates": [ [ 4450952.825892495922744, 5751003.254246757365763 ], [ 4450953.374644093215466, 5751004.450635375455022 ], [ 4450960.790412737987936, 5751020.679704836569726 ], [ 4450961.59255450963974, 5751022.441112243570387 ] ] } },
{ "type": "Feature", "properties": { "element_type": "way", "osmid": 1172439635, "name": "Ernst-Thälmann-Straße", "highway": "secondary", "nodes": [ 8485269599, 845198312, 10893426988 ], "bicycle": null, "smoothness": null, "surface": null, "tracktype": null, "maxspeed": "50", "sidewalk": "right", "lanes": "2", "lit": null, "motor_vehicle": null, "ref": "L 66", "source:maxspeed": "DE:urban", "lanes:backward": null, "traffic_calming": null }, "geometry": { "type": "LineString", "coordinates": [ [ 4450917.896929485723376, 5750932.191704718396068 ], [ 4450945.922809047624469, 5750990.870260149240494 ], [ 4450952.825892495922744, 5751003.254246757365763 ] ] } },
{ "type": "Feature", "properties": { "element_type": "way", "osmid": 1216721188, "name": null, "highway": "track", "nodes": [ 3635073697, 11273851372, 11273851373, 11273851374, 11273851375, 11273851376 ], "bicycle": null, "smoothness": null, "surface": null, "tracktype": null, "maxspeed": null, "sidewalk": null, "lanes": null, "lit": null, "motor_vehicle": null, "ref": null, "source:maxspeed": null, "lanes:backward": null, "traffic_calming": null }, "geometry": { "type": "LineString", "coordinates": [ [ 4450753.242269054055214, 5750970.373010383918881 ], [ 4450743.347805388271809, 5750970.314540065824986 ], [ 4450731.125356974080205, 5750966.673700551502407 ], [ 4450712.304263559170067, 5750960.660921697504818 ], [ 4450691.955900680273771, 5750960.371630784124136 ], [ 4450638.006943665444851, 5750963.451309577561915 ] ] } },
{ "type": "Feature", "properties": { "element_type": "way", "osmid": 1216721189, "name": null, "highway": "track", "nodes": [ 3635073698, 11273851377, 11273851378, 11273851379, 11273851380, 11273851381, 11273851382 ], "bicycle": null, "smoothness": null, "surface": null, "tracktype": null, "maxspeed": null, "sidewalk": null, "lanes": null, "lit": null, "motor_vehicle": null, "ref": null, "source:maxspeed": null, "lanes:backward": null, "traffic_calming": null }, "geometry": { "type": "LineString", "coordinates": [ [ 4450748.529553621076047, 5750974.937101013958454 ], [ 4450753.882835506461561, 5750986.501505924388766 ], [ 4450762.146864308975637, 5750996.501708178780973 ], [ 4450769.528647587634623, 5751003.606333957985044 ], [ 4450777.729628348723054, 5751007.898802014999092 ], [ 4450785.540349534712732, 5751008.912522654980421 ], [ 4450798.312397920526564, 5751006.839714107103646 ] ] } },
{ "type": "Feature", "properties": { "element_type": "way", "osmid": 1252894193, "name": null, "highway": "track", "nodes": [ 7195458735, 683875026 ], "bicycle": null, "smoothness": null, "surface": null, "tracktype": null, "maxspeed": null, "sidewalk": null, "lanes": null, "lit": null, "motor_vehicle": null, "ref": null, "source:maxspeed": null, "lanes:backward": null, "traffic_calming": null }, "geometry": { "type": "LineString", "coordinates": [ [ 4452638.015424034558237, 5750721.388077341020107 ], [ 4452618.457991553470492, 5750697.059470190666616 ] ] } },
{ "type": "Feature", "properties": { "element_type": "way", "osmid": 1252894194, "name": null, "highway": "track", "nodes": [ 4877396703, 4877396702 ], "bicycle": null, "smoothness": null, "surface": "ground", "tracktype": "grade4", "maxspeed": null, "sidewalk": null, "lanes": null, "lit": null, "motor_vehicle": null, "ref": null, "source:maxspeed": null, "lanes:backward": null, "traffic_calming": null }, "geometry": { "type": "LineString", "coordinates": [ [ 4453167.082659277133644, 5749748.822588709183037 ], [ 4453237.75190625153482, 5749995.734599486924708 ] ] } },
{ "type": "Feature", "properties": { "element_type": "way", "osmid": 1252894929, "name": null, "highway": "track", "nodes": [ 1036584868, 11645806062, 11645806063, 11645806064 ], "bicycle": null, "smoothness": null, "surface": null, "tracktype": "grade3", "maxspeed": null, "sidewalk": null, "lanes": null, "lit": null, "motor_vehicle": null, "ref": null, "source:maxspeed": null, "lanes:backward": null, "traffic_calming": null }, "geometry": { "type": "LineString", "coordinates": [ [ 4452242.98071419633925, 5750951.737857654690742 ], [ 4452242.397966767661273, 5750945.500947977416217 ], [ 4452239.92750851996243, 5750939.860666590742767 ], [ 4452236.328323652967811, 5750934.987815037369728 ] ] } }
]
}
